[{"OBJECT_NAME":"NUSAT-50 (NANCY ROMAN)","OBJECT_ID":"2024-149AB","EPOCH":"2026-03-09T19:15:16.765632","MEAN_MOTION":15.29713355,"ECCENTRICITY":0.00025229,"INCLINATION":97.3817,"RA_OF_ASC_NODE":150.7693,"ARG_OF_PERICENTER":238.0469,"MEAN_ANOMALY":122.0527,"EPHEMERIS_TYPE":0,"CLASSIFICATION_TYPE":"U","NORAD_CAT_ID":60493,"ELEMENT_SET_NO":999,"REV_AT_EPOCH":8693,"BSTAR":0.0004225155,"MEAN_MOTION_DOT":0.00012094,"MEAN_MOTION_DDOT":0},{"OBJECT_NAME":"STARLINK-33714","OBJECT_ID":"2025-076N","EPOCH":"2026-03-09T02:37:15.902112","MEAN_MOTION":15.27592859,"ECCENTRICITY":0.00018731,"INCLINATION":43.003,"RA_OF_ASC_NODE":324.8001,"ARG_OF_PERICENTER":263.2654,"MEAN_ANOMALY":96.7985,"EPHEMERIS_TYPE":0,"CLASSIFICATION_TYPE":"U","NORAD_CAT_ID":63581,"ELEMENT_SET_NO":999,"REV_AT_EPOCH":5174,"BSTAR":0.0013362317,"MEAN_MOTION_DOT":0.00036706,"MEAN_MOTION_DDOT":0}]
